NORAD_CAT_ID,OBJECT_NAME,OBJECT_TYPE,EPOCH,MEAN_MOTION,ECCENTRICITY,INCLINATION,RA_OF_ASC_NODE,ARG_OF_PERICENTER,MEAN_ANOMALY,BSTAR,MEAN_MOTION_DOT,MEAN_MOTION_DDOT,TLE_LINE0,TLE_LINE1,TLE_LINE2,SEMIMAJOR_AXIS,PERIOD,APOGEE,PERIGEE,DECAYED
53994.0,STARLINK-5125,PAYLOAD,2022-10-27 22:00:00,15.73216711,0.0002889,53.2183,342.9433,17.7206,258.5294,0.00013004,0.00017682,0.0,0 STARLINK-5125,1 53994U 22125AG  22300.91667824  .00017682  00000-0  13004-3 0  9997,2 53994  53.2183 342.9433 0002889  17.7206 258.5294 15.73216711  1305,6727.848000000001,91.532,351.656,347.769,0.0
53994.0,STARLINK-5125,PAYLOAD,2022-10-28 04:00:00,15.73266968,0.0002819,53.2184,341.7059,17.0568,235.9071,-0.00077715,-0.00108631,0.0,0 STARLINK-5125,1 53994U 22125AG  22301.16667824 -.00108631  00000-0 -77715-3 0  9991,2 53994  53.2184 341.7059 0002819  17.0568 235.9071 15.73266968  3880,6727.704000000002,91.529,351.466,347.673,0.0
53994.0,STARLINK-5125,PAYLOAD,2022-10-28 14:00:01,15.73151247,0.0003147,53.2179,339.6459,12.0038,82.2194,0.00075264,0.00106146,0.0,0 STARLINK-5125,1 53994U 22125AG  22301.58335648  .00106146  00000-0  75264-3 0  9997,2 53994  53.2179 339.6459 0003147  12.0038  82.2194 15.73151247  3956,6728.034000000002,91.536,352.016,347.782,0.0
53994.0,STARLINK-5125,PAYLOAD,2022-10-28 20:00:01,15.7324153,0.0002962,53.2179,338.4073,11.8595,58.9746,-0.00042805,-0.00060389,0.0,0 STARLINK-5125,1 53994U 22125AG  22301.83334491 -.00060389  00000-0 -42805-3 0  9995,2 53994  53.2179 338.4073 0002962  11.8595  58.9746 15.73241530  3996,6727.776999999999,91.531,351.635,347.649,0.0
53994.0,STARLINK-5125,PAYLOAD,2022-10-28 22:00:01,15.73227866,0.00029,53.2178,337.9944,12.0743,171.0697,-0.0003526,-0.00049886,0.0,0 STARLINK-5125,1 53994U 22125AG  22301.91668981 -.00049886  00000-0 -35260-3 0  9994,2 53994  53.2178 337.9944 0002900  12.0743 171.0697 15.73227866  1307,6727.816,91.532,351.63199999999995,347.73,0.0
53994.0,STARLINK-5125,PAYLOAD,2022-10-29 04:00:00,15.73215959,0.0002903,53.218,336.7575,15.2968,144.5018,-0.00024403,-0.00034761,0.0,0 STARLINK-5125,1 53994U 22125AG  22302.16667824 -.00034761  00000-0 -24403-3 0  9990,2 53994  53.2180 336.7575 0002903  15.2968 144.5018 15.73215959  4040,6727.85,91.532,351.668,347.76199999999994,0.0
53994.0,STARLINK-5125,PAYLOAD,2022-10-29 12:00:00,15.73167464,0.0003246,53.218,335.1099,16.4019,232.3348,0.00088125,0.00124756,0.0,0 STARLINK-5125,1 53994U 22125AG  22302.50001157  .00124756  00000-0  88125-3 0  9992,2 53994  53.2180 335.1099 0003246  16.4019 232.3348 15.73167464  1300,6727.988,91.535,352.037,347.6690000000001,0.0
53994.0,STARLINK-5125,PAYLOAD,2022-10-29 22:00:01,15.73258402,0.0003008,53.2182,333.0457,16.0489,73.9525,-0.00013799,-0.00019996,0.0,0 STARLINK-5125,1 53994U 22125AG  22302.91668981 -.00019996  00000-0 -13799-3 0  9997,2 53994  53.2182 333.0457 0003008  16.0489  73.9525 15.73258402  1309,6727.729,91.53,351.617,347.57,0.0
53994.0,STARLINK-5125,PAYLOAD,2022-10-30 00:00:00,15.732477,0.0003005,53.2181,332.6329,17.0175,185.1711,-5.6805e-05,-8.606e-05,0.0,0 STARLINK-5125,1 53994U 22125AG  22303.00001157 -.00008606  00000-0 -56805-4 0  9996,2 53994  53.2181 332.6329 0003005  17.0175 185.1711 15.73247700  4171,6727.759,91.53,351.646,347.602,0.0
53994.0,STARLINK-5125,PAYLOAD,2022-10-30 14:00:01,15.73220999,0.0003306,53.2171,329.7443,17.6024,250.2284,-0.0013932,-0.00192007,0.0,0 STARLINK-5125,1 53994U 22125AG  22303.58334491 -.00192007  00000-0 -13932-2 0  9990,2 53994  53.2171 329.7443 0003306  17.6024 250.2284 15.73220999  1309,6727.835,91.532,351.925,347.476,0.0
53994.0,STARLINK-5125,PAYLOAD,2022-10-30 22:00:01,15.73195785,0.0003078999999999,53.2179,328.0972,18.7977,337.9976,5.9712e-05,7.765e-05,0.0,0 STARLINK-5125,1 53994U 22125AG  22303.91668981  .00007765  00000-0  59712-4 0  9993,2 53994  53.2179 328.0972 0003079  18.7977 337.9976 15.73195785  1307,6727.906999999997,91.533,351.844,347.701,0.0
53994.0,STARLINK-5125,PAYLOAD,2022-10-31 14:00:01,15.73168049,0.0003242,53.2178,324.8006,12.5405,162.0283,0.00017364,0.00023788,0.0,0 STARLINK-5125,1 53994U 22125AG  22304.58334491  .00023788  00000-0  17364-3 0  9992,2 53994  53.2178 324.8006 0003242  12.5405 162.0283 15.73168049  1309,6727.986,91.535,352.032,347.67,0.0
53994.0,STARLINK-5125,PAYLOAD,2022-10-31 20:00:01,15.73187458,0.0003077,53.2183,323.5617,12.4311,138.889,-0.00019695,-0.00028163,0.0,0 STARLINK-5125,1 53994U 22125AG  22304.83335648 -.00028163  00000-0 -19695-3 0  9998,2 53994  53.2183 323.5617 0003077  12.4311 138.8890 15.73187458  4460,6727.931,91.534,351.866,347.726,0.0
53994.0,STARLINK-5125,PAYLOAD,2022-10-31 22:00:01,15.73163298,0.0003047,53.2182,323.149,13.2945,250.2615,5.0287e-05,6.431e-05,0.0,0 STARLINK-5125,1 53994U 22125AG  22304.91668981  .00006431  00000-0  50287-4 0  9991,2 53994  53.2182 323.1490 0003047  13.2945 250.2615 15.73163298  1303,6728.0,91.535,351.915,347.815,0.0
53994.0,STARLINK-5125,PAYLOAD,2022-11-01 12:00:00,15.73152166,0.0003455,53.2182,320.2651,17.1673,311.9009,0.00084358,0.00119244,0.0,0 STARLINK-5125,1 53994U 22125AG  22305.50001157  .00119244  00000-0  84358-3 0  9995,2 53994  53.2182 320.2651 0003455  17.1673 311.9009 15.73152166  4569,6728.031999999997,91.536,352.221,347.57199999999995,0.0
53994.0,STARLINK-5125,PAYLOAD,2022-11-01 14:00:01,15.73190039,0.0003428,53.2179,319.8522,16.8682,64.4171,0.00049893,0.00069971,0.0,0 STARLINK-5125,1 53994U 22125AG  22305.58334491  .00069971  00000-0  49893-3 0  9999,2 53994  53.2179 319.8522 0003428  16.8682  64.4171 15.73190039  1302,6727.924,91.534,352.095,347.482,0.0
53994.0,STARLINK-5125,PAYLOAD,2022-11-01 20:00:01,15.73248213,0.0003121,53.2181,318.6137,15.1417,42.8504,-0.00043323,-0.00061127,0.0,0 STARLINK-5125,1 53994U 22125AG  22305.83334491 -.00061127  00000-0 -43323-3 0  9996,2 53994  53.2181 318.6137 0003121  15.1417  42.8504 15.73248213  4628,6727.7580000000025,91.53,351.722,347.523,0.0
53994.0,STARLINK-5125,PAYLOAD,2022-11-01 22:00:00,15.73237371,0.0003058999999999,53.2178,318.2009,14.6059,155.6327,-0.00045513,-0.00064132,0.0,0 STARLINK-5125,1 53994U 22125AG  22305.91667824 -.00064132  00000-0 -45513-3 0  9996,2 53994  53.2178 318.2009 0003059  14.6059 155.6327 15.73237371  1305,6727.7890000000025,91.531,351.712,347.596,0.0
53994.0,STARLINK-5125,PAYLOAD,2022-11-02 14:00:01,15.7314605,0.0003335,53.217,314.8998,8.3372,339.7272,0.00051231,0.00071743,0.0,0 STARLINK-5125,1 53994U 22125AG  22306.58334491  .00071743  00000-0  51231-3 0  9999,2 53994  53.2170 314.8998 0003335   8.3372 339.7272 15.73146050  1308,6728.049,91.536,352.158,347.67,0.0
53994.0,STARLINK-5125,PAYLOAD,2022-11-02 18:00:02,15.73188442,0.0003232,53.2175,314.0713,10.8572,201.71,0.00013806,0.00018791,0.0,0 STARLINK-5125,1 53994U 22125AG  22306.75002315  .00018791  00000-0  13806-3 0  9995,2 53994  53.2175 314.0713 0003232  10.8572 201.7100 15.73188442  4768,6727.928000000001,91.534,351.968,347.619,0.0
53994.0,STARLINK-5125,PAYLOAD,2022-11-02 22:00:00,15.73194167,0.000308,53.2178,313.2528,11.8574,65.1021,0.00040514,0.00056617,0.0,0 STARLINK-5125,1 53994U 22125AG  22306.91667824  .00056617  00000-0  40514-3 0  9990,2 53994  53.2178 313.2528 0003080  11.8574  65.1021 15.73194167  1302,6727.9119999999975,91.534,351.849,347.705,0.0
53994.0,STARLINK-5125,PAYLOAD,2022-11-03 14:00:01,15.73285562,0.000334,53.2174,309.9555,13.1796,241.7115,-0.00043243,-0.00061116,0.0,0 STARLINK-5125,1 53994U 22125AG  22307.58334491 -.00061116  00000-0 -43243-3 0  9999,2 53994  53.2174 309.9555 0003340  13.1796 241.7115 15.73285562  1306,6727.651,91.528,351.76300000000015,347.269,0.0
53994.0,STARLINK-5125,PAYLOAD,2022-11-03 22:00:00,15.73235052,0.0003078,53.2173,308.3042,12.787,331.1280000000001,0.00033972,0.00047406,0.0,0 STARLINK-5125,1 53994U 22125AG  22307.91667824  .00047406  00000-0  33972-3 0  9997,2 53994  53.2173 308.3042 0003078  12.7870 331.1280 15.73235052  4944,6727.795,91.531,351.731,347.589,0.0
53994.0,STARLINK-5125,PAYLOAD,2022-11-04 14:00:01,15.73218404,0.0003232,53.2168,305.0047,8.5088,153.3894,-3.2597e-05,-5.2e-05,0.0,0 STARLINK-5125,1 53994U 22125AG  22308.58334491 -.00005200  00000-0 -32597-4 0  9993,2 53994  53.2168 305.0047 0003232   8.5088 153.3894 15.73218404  5053,6727.843000000003,91.532,351.88199999999995,347.533,0.0
53994.0,STARLINK-5125,PAYLOAD,2022-11-04 22:00:01,15.73173312,0.0003033,53.2171,303.3552,6.69,244.1801,-0.00051115,-0.00071689,0.0,0 STARLINK-5125,1 53994U 22125AG  22308.91668981 -.00071689  00000-0 -51115-3 0  9994,2 53994  53.2171 303.3552 0003033   6.6900 244.1801 15.73173312  5101,6727.971,91.535,351.87699999999984,347.796,0.0
53994.0,STARLINK-5125,PAYLOAD,2022-11-05 04:00:00,15.73182094,0.0003193,53.2173,302.1196,9.2327,218.2545,-0.00073205,-0.0010208,0.0,0 STARLINK-5125,1 53994U 22125AG  22309.16667824 -.00102080  00000-0 -73205-3 0  9991,2 53994  53.2173 302.1196 0003193   9.2327 218.2545 15.73182094  5141,6727.946,91.534,351.959,347.663,0.0
53994.0,STARLINK-5125,PAYLOAD,2022-11-05 14:00:01,15.73101689,0.0003334,53.2169,300.058,10.526,58.0922,-0.00014035,-0.00020196,0.0,0 STARLINK-5125,1 53994U 22125AG  22309.58335648 -.00020196  00000-0 -14035-3 0  9996,2 53994  53.2169 300.0580 0003334  10.5260  58.0922 15.73101689  1302,6728.175,91.539,352.284,347.797,0.0
53994.0,STARLINK-5125,PAYLOAD,2022-11-05 20:00:01,15.730355599999998,0.0003116,53.2169,298.8198,13.9183,31.2478,0.0013427,0.00190834,0.0,0 STARLINK-5125,1 53994U 22125AG  22309.83334491  .00190834  00000-0  13427-2 0  9997,2 53994  53.2169 298.8198 0003116  13.9183  31.2478 15.73035560  5251,6728.364000000001,91.543,352.326,348.13199999999995,0.0
53994.0,STARLINK-5125,PAYLOAD,2022-11-05 22:00:01,15.73052264,0.0003112,53.2169,298.4072,14.3498,143.0811,0.0017174,0.0024606,0.0,0 STARLINK-5125,1 53994U 22125AG  22309.91668981  .00246060  00000-0  17174-2 0  9996,2 53994  53.2169 298.4072 0003112  14.3498 143.0811 15.73052264  1303,6728.316,91.542,352.275,348.088,0.0
